{
"type": "FeatureCollection",
"name": "Host",
"crs": { "type": "name", "properties": { "name": "urn:ogc:def:crs:OGC:1.3:CRS84" } },
"features": [
{"type":"Feature","properties":{"Porch_Host Name":"bob","Porch_Host_address":"649 west ocean view ","City":"Norfolk","State":"VA","Country":"USA","lat":"","long":"","result_num":"0","osm_id":"403882985","display_name":"West Ocean View, Ocean View, Norfolk, Virginia, United States","category":"place","type":"neighbourhood","latlong":"36.94961,-76.2613943"},"geometry":{"type":"Point","coordinates":[-76.2613943,36.94961]}},
{"type":"Feature","properties":{"Porch_Host Name":"jerry","Porch_Host_address":"739 Boush St","City":"Norfolk","State":"VA","Country":"USA","lat":"","long":"","result_num":"0","osm_id":"11715672023","display_name":"739, Boush Street, Downtown, Norfolk, Virginia, 23510, United States","category":"place","type":"house","latlong":"36.8554824,-76.2909907"},"geometry":{"type":"Point","coordinates":[-76.2909907,36.8554824]}},
{"type":"Feature","properties":{"Porch_Host Name":"jerry","Porch_Host_address":"739 Boush St","City":"Norfolk","State":"VA","Country":"USA","lat":"","long":"","result_num":"1","osm_id":"1378300056","display_name":"739, Boush Street, Downtown, Norfolk, Virginia, 23510, United States","category":"place","type":"house","latlong":"36.85553933333333,-76.290842625"},"geometry":{"type":"Point","coordinates":[-76.290842625,36.855539333333333]}},
{"type":"Feature","properties":{"Porch_Host Name":"sara","Porch_Host_address":"1000 Colley Ave","City":"Norfolk","State":"VA","Country":"USA","lat":"","long":"","result_num":"0","osm_id":"690966897","display_name":"1000, Colley Avenue, Ghent, Norfolk, Virginia, 23507, United States","category":"place","type":"house","latlong":"36.86441,-76.299812"},"geometry":{"type":"Point","coordinates":[-76.299812,36.86441]}},
{"type":"Feature","properties":{"Porch_Host Name":"paul","Porch_Host_address":"1200 Colley Ave","City":"Norfolk","State":"VA","Country":"USA","lat":"","long":"","result_num":"0","osm_id":"48778218","display_name":"1200, Colley Avenue, Ghent, Norfolk, Virginia, 23517, United States","category":"place","type":"house","latlong":"36.865894,-76.298965"},"geometry":{"type":"Point","coordinates":[-76.298965,36.865894]}},
{"type":"Feature","properties":{"Porch_Host Name":"george","Porch_Host_address":"1600 Colonial Ave","City":"Norfolk","State":"VA","Country":"USA","lat":"","long":"","result_num":"0","osm_id":"407403081","display_name":"Trinity Presbyterian Church, 1600, Colonial Avenue, Ghent, Norfolk, Virginia, 23517, United States","category":"amenity","type":"place_of_worship","latlong":"36.8667762,-76.2922707"},"geometry":{"type":"Point","coordinates":[-76.2922707,36.8667762]}},
{"type":"Feature","properties":{"Porch_Host Name":"nate","Porch_Host_address":"1500 Llewellyn Ave","City":"Norfolk","State":"VA","Country":"USA","lat":"","long":"","result_num":"0","osm_id":"298431189","display_name":"Llewellyn Avenue, Park Place, Norfolk, Virginia, 23504, United States","category":"highway","type":"tertiary","latlong":"36.8754779,-76.2854575"},"geometry":{"type":"Point","coordinates":[-76.2854575,36.8754779]}},
{"type":"Feature","properties":{"Porch_Host Name":"nate","Porch_Host_address":"1500 Llewellyn Ave","City":"Norfolk","State":"VA","Country":"USA","lat":"","long":"","result_num":"1","osm_id":"20601775","display_name":"Llewellyn Avenue, Ghent, Downtown, Norfolk, Virginia, 23517, United States","category":"highway","type":"tertiary","latlong":"36.8646869,-76.2887299"},"geometry":{"type":"Point","coordinates":[-76.2887299,36.8646869]}},
{"type":"Feature","properties":{"Porch_Host Name":"nate","Porch_Host_address":"1500 Llewellyn Ave","City":"Norfolk","State":"VA","Country":"USA","lat":"","long":"","result_num":"2","osm_id":"1079398011","display_name":"Llewellyn Avenue, Ghent, Downtown, Norfolk, Virginia, 23504, United States","category":"highway","type":"tertiary","latlong":"36.8624785,-76.2894769"},"geometry":{"type":"Point","coordinates":[-76.2894769,36.8624785]}},
{"type":"Feature","properties":{"Porch_Host Name":"nate","Porch_Host_address":"1500 Llewellyn Ave","City":"Norfolk","State":"VA","Country":"USA","lat":"","long":"","result_num":"3","osm_id":"310313893","display_name":"Llewellyn Avenue, Ghent, Norfolk, Virginia, 23504, United States","category":"highway","type":"tertiary","latlong":"36.865513,-76.2884986"},"geometry":{"type":"Point","coordinates":[-76.2884986,36.865513]}},
{"type":"Feature","properties":{"Porch_Host Name":"nate","Porch_Host_address":"1500 Llewellyn Ave","City":"Norfolk","State":"VA","Country":"USA","lat":"","long":"","result_num":"4","osm_id":"1079386979","display_name":"Llewellyn Avenue, Ghent, Norfolk, Virginia, 23517, United States","category":"highway","type":"tertiary","latlong":"36.8617757,-76.290059"},"geometry":{"type":"Point","coordinates":[-76.290059,36.8617757]}},
{"type":"Feature","properties":{"Porch_Host Name":"nate","Porch_Host_address":"1500 Llewellyn Ave","City":"Norfolk","State":"VA","Country":"USA","lat":"","long":"","result_num":"5","osm_id":"1074755920","display_name":"Llewellyn Avenue, Riverview, Norfolk, Virginia, 23504, United States","category":"highway","type":"tertiary","latlong":"36.8835833,-76.2837253"},"geometry":{"type":"Point","coordinates":[-76.2837253,36.8835833]}},
{"type":"Feature","properties":{"Porch_Host Name":"sean","Porch_Host_address":"1301 Stockley Gardens","City":"Norfolk","State":"VA","Country":"USA","lat":"","long":"","result_num":"0","osm_id":"20612978","display_name":"1301, Stockley Gardens, Ghent, Norfolk, Virginia, 23517, United States","category":"place","type":"house","latlong":"36.86484676480279,-76.2945669201875"},"geometry":{"type":"Point","coordinates":[-76.294566920187506,36.864846764802792]}},
{"type":"Feature","properties":{"Porch_Host Name":"sean","Porch_Host_address":"1301 Stockley Gardens","City":"Norfolk","State":"VA","Country":"USA","lat":"","long":"","result_num":"1","osm_id":"20612975","display_name":"1301, Stockley Gardens, Ghent, Norfolk, Virginia, 23517, United States","category":"place","type":"house","latlong":"36.865071,-76.295115"},"geometry":{"type":"Point","coordinates":[-76.295115,36.865071]}},
{"type":"Feature","properties":{"Porch_Host Name":"paula","Porch_Host_address":"1400 Redgate Ave","City":"Norfolk","State":"VA","Country":"USA","lat":"","long":"","result_num":"0","osm_id":"823847491","display_name":"1400, Redgate Avenue, Norfolk, Virginia, 23507, United States","category":"place","type":"house","latlong":"36.8687709613981,-76.30942992759776"},"geometry":{"type":"Point","coordinates":[-76.309429927597762,36.868770961398099]}},
{"type":"Feature","properties":{"Porch_Host Name":"christina","Porch_Host_address":"1100 Graydon Ave","City":"Norfolk","State":"VA","Country":"USA","lat":"","long":"","result_num":"0","osm_id":"407337312","display_name":"1100, Graydon Avenue, West Ghent, Norfolk, Virginia, 23507, United States","category":"building","type":"residential","latlong":"36.8676262,-76.3044101"},"geometry":{"type":"Point","coordinates":[-76.3044101,36.8676262]}}
]
}
