{
  "type": "FeatureCollection",
  "features": [
    {
      "type": "Feature",
      "geometry": { "type": "Point", "coordinates": [-76.25941, 36.94794] },
      "properties": {
        "Host": "bob",
        "Address": "649 West Ocean View",
        "Neighborhood": "Ocean View",
        "Artists": [
          { "Artist": "Maya Rhodes", "Social": "@mayarhodesmusic", "SetTime": "12:00 PM", "Photo": "" },
          { "Artist": "The Driftwood Duo", "Social": "@driftwoodduo", "SetTime": "1:30 PM", "Photo": "" }
        ]
      }
    },
    {
      "type": "Feature",
      "geometry": { "type": "Point", "coordinates": [-76.28742, 36.85663] },
      "properties": {
        "Host": "jerry",
        "Address": "739 Boush St",
        "Neighborhood": "Downtown",
        "Artists": [
          { "Artist": "Cal Finney", "Social": "@calfinney", "SetTime": "12:00 PM", "Photo": "" },
          { "Artist": "Lena Moreau", "Social": "@lenamoreau", "SetTime": "1:30 PM", "Photo": "" }
        ]
      }
    },
    {
      "type": "Feature",
      "geometry": { "type": "Point", "coordinates": [-76.29442, 36.86741] },
      "properties": {
        "Host": "sara",
        "Address": "1000 Colley Ave",
        "Neighborhood": "Ghent",
        "Artists": [
          { "Artist": "Jonah Blue", "Social": "@jonahbluemusic", "SetTime": "12:00 PM", "Photo": "" },
          { "Artist": "Priya Solis", "Social": "@priyasolisfolk", "SetTime": "1:30 PM", "Photo": "" }
        ]
      }
    },
    {
      "type": "Feature",
      "geometry": { "type": "Point", "coordinates": [-76.29445, 36.87063] },
      "properties": {
        "Host": "paul",
        "Address": "1200 Colley Ave",
        "Neighborhood": "Ghent",
        "Artists": [
          { "Artist": "The Velvet Compass", "Social": "@thevelvetcompass", "SetTime": "12:00 PM", "Photo": "" },
          { "Artist": "Sam Kettner", "Social": "@samkettner", "SetTime": "1:30 PM", "Photo": "" }
        ]
      }
    },
    {
      "type": "Feature",
      "geometry": { "type": "Point", "coordinates": [-76.28673, 36.87392] },
      "properties": {
        "Host": "george",
        "Address": "1600 Colonial Ave",
        "Neighborhood": "Ghent",
        "Artists": [
          { "Artist": "River & Rue", "Social": "@riverandrue", "SetTime": "12:00 PM", "Photo": "" }
        ]
      }
    },
    {
      "type": "Feature",
      "geometry": { "type": "Point", "coordinates": [-76.28894, 36.87352] },
      "properties": {
        "Host": "nate",
        "Address": "1500 Llewellyn Ave",
        "Neighborhood": "Ghent",
        "Artists": [
          { "Artist": "Devin Ashby", "Social": "@devinashby", "SetTime": "12:00 PM", "Photo": "" },
          { "Artist": "Tara Lynne", "Social": "@taralynnelive", "SetTime": "1:30 PM", "Photo": "" }
        ]
      }
    },
    {
      "type": "Feature",
      "geometry": { "type": "Point", "coordinates": [-76.29113, 36.86786] },
      "properties": {
        "Host": "sean",
        "Address": "1301 Stockley Gardens",
        "Neighborhood": "Ghent",
        "Artists": [
          { "Artist": "Marco Street Band", "Social": "@marcostreetband", "SetTime": "12:00 PM", "Photo": "" }
        ]
      }
    },
    {
      "type": "Feature",
      "geometry": { "type": "Point", "coordinates": [-76.28952, 36.86886] },
      "properties": {
        "Host": "paula",
        "Address": "1400 Redgate Ave",
        "Neighborhood": "Ghent",
        "Artists": [
          { "Artist": "Ellie Wren", "Social": "@elliewrenmusic", "SetTime": "12:00 PM", "Photo": "" },
          { "Artist": "The Copper Strings", "Social": "@thecopperstrings", "SetTime": "1:30 PM", "Photo": "" }
        ]
      }
    },
    {
      "type": "Feature",
      "geometry": { "type": "Point", "coordinates": [-76.28987, 36.86709] },
      "properties": {
        "Host": "christina",
        "Address": "1100 Graydon Ave",
        "Neighborhood": "Ghent",
        "Artists": [
          { "Artist": "Nora Vance", "Social": "@noravancemusic", "SetTime": "12:00 PM", "Photo": "" }
        ]
      }
    }
  ]
}
